start=new Date('2022-12-26T00:00:00.000Z').valueOf();
sats=[{"GP_ID":"221450149","RA_OF_ASC_NODE":"79.0201","COUNTRY_CODE":"US","REF_FRAME":"TEME","ECCENTRICITY":"0.00018210","MEAN_MOTION_DDOT":"0.0000000000000","MEAN_ELEMENT_THEORY":"SGP4","CLASSIFICATION_TYPE":"U","PERIAPSIS":"545.968","RCS_SIZE":"LARGE","INCLINATION":"53.0553","MEAN_MOTION_DOT":"0.00000946","MEAN_MOTION":"15.06394977","TIME_SYSTEM":"UTC","APOAPSIS":"548.490","BSTAR":"0.00008244000000","TLE_LINE1":"1 47739U 21017T   22359.67725579  .00000946  00000-0  82440-4 0  9991","OBJECT_NAME":"STARLINK-2150","ARG_OF_PERICENTER":"44.9953","EPHEMERIS_TYPE":"0","MEAN_ANOMALY":"315.1183","REV_AT_EPOCH":"10122","NORAD_CAT_ID":"47739","TLE_LINE2":"2 47739  53.0553  79.0201 0001821  44.9953 315.1183 15.06394977101227","EPOCH":"2022-12-25T16:15:14.900256","ELEMENT_SET_NO":"999","SITE":"AFETR","DECAY_DATE":null,"OBJECT_ID":"2021-017T","PERIOD":"95.592","SEMIMAJOR_AXIS":"6925.364","LAUNCH_DATE":"2021-03-04","FILE":"3722315","OBJECT_TYPE":"PAYLOAD","CENTER_NAME":"EARTH"},{"ARG_OF_PERICENTER":"41.6297","OBJECT_NAME":"STARLINK-2152","TIME_SYSTEM":"UTC","APOAPSIS":"548.683","BSTAR":"0.00002989700000","TLE_LINE1":"1 47740U 21017U   22359.45930846  .00000164  00000-0  29897-4 0  9993","MEAN_ANOMALY":"318.4852","EPHEMERIS_TYPE":"0","ELEMENT_SET_NO":"999","DECAY_DATE":null,"SITE":"AFETR","PERIOD":"95.593","OBJECT_ID":"2021-017U","EPOCH":"2022-12-25T11:01:24.250944","NORAD_CAT_ID":"47740","TLE_LINE2":"2 47740  53.0554  65.0030 0002095  41.6297 318.4852 15.06393848101397","REV_AT_EPOCH":"10139","CENTER_NAME":"EARTH","OBJECT_TYPE":"PAYLOAD","FILE":"3722051","LAUNCH_DATE":"2021-03-04","SEMIMAJOR_AXIS":"6925.367","COUNTRY_CODE":"US","RA_OF_ASC_NODE":"65.0030","GP_ID":"221419317","MEAN_ELEMENT_THEORY":"SGP4","MEAN_MOTION_DDOT":"0.0000000000000","ECCENTRICITY":"0.00020950","REF_FRAME":"TEME","MEAN_MOTION_DOT":"0.00000164","PERIAPSIS":"545.782","INCLINATION":"53.0554","RCS_SIZE":"LARGE","CLASSIFICATION_TYPE":"U","MEAN_MOTION":"15.06393848"},{"ARG_OF_PERICENTER":"67.4517","OBJECT_NAME":"STARLINK-2154","APOAPSIS":"548.478","TIME_SYSTEM":"UTC","BSTAR":"-0.00025386000000","TLE_LINE1":"1 47741U 21017V   22359.87214437 -.00004059  00000-0 -25386-3 0  9998","MEAN_ANOMALY":"292.6657","EPHEMERIS_TYPE":"0","ELEMENT_SET_NO":"999","SITE":"AFETR","DECAY_DATE":null,"OBJECT_ID":"2021-017V","PERIOD":"95.593","EPOCH":"2022-12-25T20:55:53.273568","NORAD_CAT_ID":"47741","TLE_LINE2":"2 47741  53.0539  63.1443 0001751  67.4517 292.6657 15.06383022101419","REV_AT_EPOCH":"10141","CENTER_NAME":"EARTH","OBJECT_TYPE":"PAYLOAD","FILE":"3722315","SEMIMAJOR_AXIS":"6925.401","LAUNCH_DATE":"2021-03-04","COUNTRY_CODE":"US","RA_OF_ASC_NODE":"63.1443","GP_ID":"221451151","MEAN_ELEMENT_THEORY":"SGP4","MEAN_MOTION_DDOT":"0.0000000000000","ECCENTRICITY":"0.00017510","REF_FRAME":"TEME","MEAN_MOTION_DOT":"-0.00004059","PERIAPSIS":"546.053","RCS_SIZE":"LARGE","INCLINATION":"53.0539","CLASSIFICATION_TYPE":"U","MEAN_MOTION":"15.06383022"},{"EPHEMERIS_TYPE":"0","MEAN_ANOMALY":"326.2391","ARG_OF_PERICENTER":"33.8753","TLE_LINE1":"1 47742U 21017W   22359.88410962 -.00000492  00000-0 -14118-4 0  9990","APOAPSIS":"548.904","TIME_SYSTEM":"UTC","BSTAR":"-0.00001411800000","OBJECT_NAME":"STARLINK-2156","OBJECT_TYPE":"PAYLOAD","CENTER_NAME":"EARTH","LAUNCH_DATE":"2021-03-04","SEMIMAJOR_AXIS":"6925.355","FILE":"3722315","EPOCH":"2022-12-25T21:13:07.071168","SITE":"AFETR","DECAY_DATE":null,"PERIOD":"95.592","OBJECT_ID":"2021-017W","ELEMENT_SET_NO":"999","REV_AT_EPOCH":"10160","TLE_LINE2":"2 47742  53.0561  53.0867 0002432  33.8753 326.2391 15.06397920101601","NORAD_CAT_ID":"47742","MEAN_MOTION_DDOT":"0.0000000000000","ECCENTRICITY":"0.00024320","MEAN_ELEMENT_THEORY":"SGP4","REF_FRAME":"TEME","RA_OF_ASC_NODE":"53.0867","COUNTRY_CODE":"US","GP_ID":"221450399","MEAN_MOTION":"15.06397920","INCLINATION":"53.0561","RCS_SIZE":"LARGE","PERIAPSIS":"545.536","MEAN_MOTION_DOT":"-0.00000492","CLASSIFICATION_TYPE":"U"},{"TLE_LINE1":"1 47743U 21017X   22359.44548739 -.00000196  00000-0  57633-5 0  9997","TIME_SYSTEM":"UTC","APOAPSIS":"549.029","BSTAR":"0.00000576330000","OBJECT_NAME":"STARLINK-2157","ARG_OF_PERICENTER":"32.4393","EPHEMERIS_TYPE":"0","MEAN_ANOMALY":"327.6755","REV_AT_EPOCH":"10151","TLE_LINE2":"2 47743  53.0551  55.0556 0002593  32.4393 327.6755 15.06393471101517","NORAD_CAT_ID":"47743","EPOCH":"2022-12-25T10:41:30.110496","DECAY_DATE":null,"SITE":"AFETR","PERIOD":"95.593","OBJECT_ID":"2021-017X","ELEMENT_SET_NO":"999","SEMIMAJOR_AXIS":"6925.369","LAUNCH_DATE":"2021-03-04","FILE":"3722051","OBJECT_TYPE":"PAYLOAD","CENTER_NAME":"EARTH","GP_ID":"221419092","RA_OF_ASC_NODE":"55.0556","COUNTRY_CODE":"US","REF_FRAME":"TEME","ECCENTRICITY":"0.00025930","MEAN_MOTION_DDOT":"0.0000000000000","MEAN_ELEMENT_THEORY":"SGP4","CLASSIFICATION_TYPE":"U","INCLINATION":"53.0551","RCS_SIZE":"LARGE","PERIAPSIS":"545.438","MEAN_MOTION_DOT":"-0.00000196","MEAN_MOTION":"15.06393471"},{"RA_OF_ASC_NODE":"53.0347","COUNTRY_CODE":"US","GP_ID":"221450901","ECCENTRICITY":"0.00025490","MEAN_MOTION_DDOT":"0.0000000000000","MEAN_ELEMENT_THEORY":"SGP4","REF_FRAME":"TEME","RCS_SIZE":"LARGE","INCLINATION":"53.0558","PERIAPSIS":"545.451","MEAN_MOTION_DOT":"0.00001279","CLASSIFICATION_TYPE":"U","MEAN_MOTION":"15.06399171","ARG_OF_PERICENTER":"32.6673","TLE_LINE1":"1 47744U 21017Y   22359.88315978  .00001279  00000-0  10480-3 0  9992","APOAPSIS":"548.981","TIME_SYSTEM":"UTC","BSTAR":"0.00010480000000","OBJECT_NAME":"STARLINK-2158","EPHEMERIS_TYPE":"0","MEAN_ANOMALY":"327.4473","EPOCH":"2022-12-25T21:11:45.004992","SITE":"AFETR","DECAY_DATE":null,"OBJECT_ID":"2021-017Y","PERIOD":"95.592","ELEMENT_SET_NO":"999","REV_AT_EPOCH":"10160","TLE_LINE2":"2 47744  53.0558  53.0347 0002549  32.6673 327.4473 15.06399171101603","NORAD_CAT_ID":"47744","OBJECT_TYPE":"PAYLOAD","CENTER_NAME":"EARTH","LAUNCH_DATE":"2021-03-04","SEMIMAJOR_AXIS":"6925.351","FILE":"3722315"},{"EPHEMERIS_TYPE":"0","MEAN_ANOMALY":"317.7198","ARG_OF_PERICENTER":"42.3945","TLE_LINE1":"1 47745U 21017Z   22359.71732528 -.00000024  00000-0  17326-4 0  9994","BSTAR":"0.00001732600000","APOAPSIS":"548.612","TIME_SYSTEM":"UTC","OBJECT_NAME":"STARLINK-2159","OBJECT_TYPE":"PAYLOAD","CENTER_NAME":"EARTH","LAUNCH_DATE":"2021-03-04","SEMIMAJOR_AXIS":"6925.370","FILE":"3722315","EPOCH":"2022-12-25T17:12:56.904192","DECAY_DATE":null,"PERIOD":"95.593","SITE":"AFETR","OBJECT_ID":"2021-017Z","ELEMENT_SET_NO":"999","REV_AT_EPOCH":"10138","TLE_LINE2":"2 47745  53.0585  63.8316 0001989  42.3945 317.7198 15.06393022101386","NORAD_CAT_ID":"47745","MEAN_MOTION_DDOT":"0.0000000000000","ECCENTRICITY":"0.00019890","MEAN_ELEMENT_THEORY":"SGP4","REF_FRAME":"TEME","RA_OF_ASC_NODE":"63.8316","COUNTRY_CODE":"US","GP_ID":"221451651","MEAN_MOTION":"15.06393022","RCS_SIZE":"LARGE","INCLINATION":"53.0585","PERIAPSIS":"545.857","MEAN_MOTION_DOT":"-0.00000024","CLASSIFICATION_TYPE":"U"},{"ARG_OF_PERICENTER":"35.2052","APOAPSIS":"548.792","BSTAR":"0.00007628800000","TIME_SYSTEM":"UTC","TLE_LINE1":"1 47746U 21017AA  22359.57725795  .00000855  00000-0  76288-4 0  9990","OBJECT_NAME":"STARLINK-2160","EPHEMERIS_TYPE":"0","MEAN_ANOMALY":"324.9086","EPOCH":"2022-12-25T13:51:15.086880","ELEMENT_SET_NO":"999","DECAY_DATE":null,"SITE":"AFETR","PERIOD":"95.593","OBJECT_ID":"2021-017AA","REV_AT_EPOCH":"10135","NORAD_CAT_ID":"47746","TLE_LINE2":"2 47746  53.0557  64.4708 0002253  35.2052 324.9086 15.06393998101358","OBJECT_TYPE":"PAYLOAD","CENTER_NAME":"EARTH","LAUNCH_DATE":"2021-03-04","SEMIMAJOR_AXIS":"6925.367","FILE":"3722315","RA_OF_ASC_NODE":"64.4708","COUNTRY_CODE":"US","GP_ID":"221449900","ECCENTRICITY":"0.00022530","MEAN_MOTION_DDOT":"0.0000000000000","MEAN_ELEMENT_THEORY":"SGP4","REF_FRAME":"TEME","PERIAPSIS":"545.672","RCS_SIZE":"LARGE","INCLINATION":"53.0557","MEAN_MOTION_DOT":"0.00000855","CLASSIFICATION_TYPE":"U","MEAN_MOTION":"15.06393998"},{"ARG_OF_PERICENTER":"34.8517","TLE_LINE1":"1 47747U 21017AB  22359.57449393  .00000232  00000-0  34509-4 0  9997","BSTAR":"0.00003450900000","APOAPSIS":"548.688","TIME_SYSTEM":"UTC","OBJECT_NAME":"STARLINK-2161","EPHEMERIS_TYPE":"0","MEAN_ANOMALY":"325.2610","EPOCH":"2022-12-25T13:47:16.275552","SITE":"AFETR","DECAY_DATE":null,"PERIOD":"95.592","OBJECT_ID":"2021-017AB","ELEMENT_SET_NO":"999","REV_AT_EPOCH":"10153","TLE_LINE2":"2 47747  53.0564  54.4614 0002114  34.8517 325.2610 15.06396729101531","NORAD_CAT_ID":"47747","OBJECT_TYPE":"PAYLOAD","CENTER_NAME":"EARTH","LAUNCH_DATE":"2021-03-04","SEMIMAJOR_AXIS":"6925.359","FILE":"3722315","RA_OF_ASC_NODE":"54.4614","COUNTRY_CODE":"US","GP_ID":"221450150","ECCENTRICITY":"0.00021140","MEAN_MOTION_DDOT":"0.0000000000000","MEAN_ELEMENT_THEORY":"SGP4","REF_FRAME":"TEME","INCLINATION":"53.0564","RCS_SIZE":"LARGE","PERIAPSIS":"545.760","MEAN_MOTION_DOT":"0.00000232","CLASSIFICATION_TYPE":"U","MEAN_MOTION":"15.06396729"},{"ECCENTRICITY":"0.00023440","MEAN_MOTION_DDOT":"0.0000000000000","MEAN_ELEMENT_THEORY":"SGP4","REF_FRAME":"TEME","RA_OF_ASC_NODE":"55.0957","COUNTRY_CODE":"US","GP_ID":"221451401","MEAN_MOTION":"15.06398883","PERIAPSIS":"545.594","RCS_SIZE":"LARGE","INCLINATION":"53.0548","MEAN_MOTION_DOT":"0.00000535","CLASSIFICATION_TYPE":"U","EPHEMERIS_TYPE":"0","MEAN_ANOMALY":"321.7293","ARG_OF_PERICENTER":"38.3863","TIME_SYSTEM":"UTC","APOAPSIS":"548.840","BSTAR":"0.00005486100000","TLE_LINE1":"1 47748U 21017AC  22359.43442692  .00000535  00000-0  54861-4 0  9997","OBJECT_NAME":"STARLINK-2162","OBJECT_TYPE":"PAYLOAD","CENTER_NAME":"EARTH","SEMIMAJOR_AXIS":"6925.352","LAUNCH_DATE":"2021-03-04","FILE":"3722315","EPOCH":"2022-12-25T10:25:34.485888","ELEMENT_SET_NO":"999","DECAY_DATE":null,"SITE":"AFETR","OBJECT_ID":"2021-017AC","PERIOD":"95.592","REV_AT_EPOCH":"10148","NORAD_CAT_ID":"47748","TLE_LINE2":"2 47748  53.0548  55.0957 0002344  38.3863 321.7293 15.06398883101484"}];
